[
  {
    "OBJECT_NAME": "STARLINK-2475",
    "OBJECT_ID": "21027AT",
    "EPOCH": "2025-11-11T06:57:36.432864",
    "MEAN_MOTION": 15.06399634,
    "ECCENTRICITY": 0.0001513,
    "INCLINATION": 53.0542,
    "RA_OF_ASC_NODE": 343.1342,
    "ARG_OF_PERICENTER": 86.436,
    "MEAN_ANOMALY": 273.6802,
    "EPHEMERIS_TYPE": 0,
    "CLASSIFICATION_TYPE": "U",
    "NORAD_CAT_ID": 48133,
    "ELEMENT_SET_NO": 999,
    "REV_AT_EPOCH": 25457,
    "BSTAR": 0.0,
    "MEAN_MOTION_DOT": -2.92e-06,
    "MEAN_MOTION_DDOT": 0.0,
    "TLE_LINE1": "1 48133U 21027AT  25315.29000501 -.00000292  00000+0 -73023-6 0  9999",
    "TLE_LINE2": "2 48133  53.0542 343.1342 0001513  86.4360 273.6802 15.06399634254574",
    "COMMENT": "Grouped by shell and plane from TLE"
  },
  {
    "OBJECT_NAME": "STARLINK-2476",
    "OBJECT_ID": "21027AU",
    "EPOCH": "2025-11-11T06:36:19.602432",
    "MEAN_MOTION": 15.06450369,
    "ECCENTRICITY": 0.0001475,
    "INCLINATION": 53.0547,
    "RA_OF_ASC_NODE": 343.2018,
    "ARG_OF_PERICENTER": 82.2105,
    "MEAN_ANOMALY": 277.9052,
    "EPHEMERIS_TYPE": 0,
    "CLASSIFICATION_TYPE": "U",
    "NORAD_CAT_ID": 48134,
    "ELEMENT_SET_NO": 999,
    "REV_AT_EPOCH": 25456,
    "BSTAR": 0.00081382,
    "MEAN_MOTION_DOT": 0.00011877,
    "MEAN_MOTION_DDOT": 0.0,
    "TLE_LINE1": "1 48134U 21027AU  25315.27522688  .00011877  00000+0  81382-3 0  9996",
    "TLE_LINE2": "2 48134  53.0547 343.2018 0001475  82.2105 277.9052 15.06450369254565",
    "COMMENT": "Grouped by shell and plane from TLE"
  },
  {
    "OBJECT_NAME": "STARLINK-2478",
    "OBJECT_ID": "21027AV",
    "EPOCH": "2025-11-11T06:38:24.099648",
    "MEAN_MOTION": 15.06396438,
    "ECCENTRICITY": 0.0001372,
    "INCLINATION": 53.0556,
    "RA_OF_ASC_NODE": 348.3609,
    "ARG_OF_PERICENTER": 97.6924,
    "MEAN_ANOMALY": 262.4221,
    "EPHEMERIS_TYPE": 0,
    "CLASSIFICATION_TYPE": "U",
    "NORAD_CAT_ID": 48135,
    "ELEMENT_SET_NO": 999,
    "REV_AT_EPOCH": 25449,
    "BSTAR": 8.209300000000002e-05,
    "MEAN_MOTION_DOT": 9.41e-06,
    "MEAN_MOTION_DDOT": 0.0,
    "TLE_LINE1": "1 48135U 21027AV  25315.27666782  .00000941  00000+0  82093-4 0  9992",
    "TLE_LINE2": "2 48135  53.0556 348.3609 0001372  97.6924 262.4221 15.06396438254498",
    "COMMENT": "Grouped by shell and plane from TLE"
  },
  {
    "OBJECT_NAME": "STARLINK-2479",
    "OBJECT_ID": "21027AW",
    "EPOCH": "2025-11-11T06:47:05.182368",
    "MEAN_MOTION": 15.06404686,
    "ECCENTRICITY": 0.0001648,
    "INCLINATION": 53.0533,
    "RA_OF_ASC_NODE": 343.6684,
    "ARG_OF_PERICENTER": 97.2687,
    "MEAN_ANOMALY": 262.8489,
    "EPHEMERIS_TYPE": 0,
    "CLASSIFICATION_TYPE": "U",
    "NORAD_CAT_ID": 48136,
    "ELEMENT_SET_NO": 999,
    "REV_AT_EPOCH": 25456,
    "BSTAR": 0.00026136999999999997,
    "MEAN_MOTION_DOT": 3.614e-05,
    "MEAN_MOTION_DDOT": 0.0,
    "TLE_LINE1": "1 48136U 21027AW  25315.28269887  .00003614  00000+0  26137-3 0  9995",
    "TLE_LINE2": "2 48136  53.0533 343.6684 0001648  97.2687 262.8489 15.06404686254566",
    "COMMENT": "Grouped by shell and plane from TLE"
  },
  {
    "OBJECT_NAME": "STARLINK-2481",
    "OBJECT_ID": "21027AY",
    "EPOCH": "2025-11-11T06:52:17.901984",
    "MEAN_MOTION": 15.06398532,
    "ECCENTRICITY": 0.0001587,
    "INCLINATION": 53.0546,
    "RA_OF_ASC_NODE": 343.152,
    "ARG_OF_PERICENTER": 85.9664,
    "MEAN_ANOMALY": 274.1506,
    "EPHEMERIS_TYPE": 0,
    "CLASSIFICATION_TYPE": "U",
    "NORAD_CAT_ID": 48138,
    "ELEMENT_SET_NO": 999,
    "REV_AT_EPOCH": 25457,
    "BSTAR": 0.00021018,
    "MEAN_MOTION_DOT": 2.85e-05,
    "MEAN_MOTION_DDOT": 0.0,
    "TLE_LINE1": "1 48138U 21027AY  25315.28631831  .00002850  00000+0  21018-3 0  9993",
    "TLE_LINE2": "2 48138  53.0546 343.1520 0001587  85.9664 274.1506 15.06398532254576",
    "COMMENT": "Grouped by shell and plane from TLE"
  },
  {
    "OBJECT_NAME": "STARLINK-2483",
    "OBJECT_ID": "21027BA",
    "EPOCH": "2025-11-11T07:08:18.877344",
    "MEAN_MOTION": 15.06408043,
    "ECCENTRICITY": 0.0001497,
    "INCLINATION": 53.0546,
    "RA_OF_ASC_NODE": 343.647,
    "ARG_OF_PERICENTER": 91.5073,
    "MEAN_ANOMALY": 268.6088,
    "EPHEMERIS_TYPE": 0,
    "CLASSIFICATION_TYPE": "U",
    "NORAD_CAT_ID": 48140,
    "ELEMENT_SET_NO": 999,
    "REV_AT_EPOCH": 25456,
    "BSTAR": 0.00010305000000000001,
    "MEAN_MOTION_DOT": 1.254e-05,
    "MEAN_MOTION_DDOT": 0.0,
    "TLE_LINE1": "1 48140U 21027BA  25315.29744071  .00001254  00000+0  10305-3 0  9992",
    "TLE_LINE2": "2 48140  53.0546 343.6470 0001497  91.5073 268.6088 15.06408043254566",
    "COMMENT": "Grouped by shell and plane from TLE"
  },
  {
    "OBJECT_NAME": "STARLINK-2491",
    "OBJECT_ID": "21027BJ",
    "EPOCH": "2025-11-11T05:59:12.663168",
    "MEAN_MOTION": 15.06399769,
    "ECCENTRICITY": 0.0001221,
    "INCLINATION": 53.0554,
    "RA_OF_ASC_NODE": 343.3171,
    "ARG_OF_PERICENTER": 96.9369,
    "MEAN_ANOMALY": 263.1759,
    "EPHEMERIS_TYPE": 0,
    "CLASSIFICATION_TYPE": "U",
    "NORAD_CAT_ID": 48148,
    "ELEMENT_SET_NO": 999,
    "REV_AT_EPOCH": 25455,
    "BSTAR": 0.0,
    "MEAN_MOTION_DOT": -6.01e-06,
    "MEAN_MOTION_DDOT": 0.0,
    "TLE_LINE1": "1 48148U 21027BJ  25315.24945212 -.00000601  00000+0 -21463-4 0  9990",
    "TLE_LINE2": "2 48148  53.0554 343.3171 0001221  96.9369 263.1759 15.06399769254558",
    "COMMENT": "Grouped by shell and plane from TLE"
  },
  {
    "OBJECT_NAME": "STARLINK-3324",
    "OBJECT_ID": "22001M",
    "EPOCH": "2025-11-11T06:27:34.869312",
    "MEAN_MOTION": 15.08834223,
    "ECCENTRICITY": 0.0001641,
    "INCLINATION": 53.2174,
    "RA_OF_ASC_NODE": 340.7299,
    "ARG_OF_PERICENTER": 93.0171,
    "MEAN_ANOMALY": 267.1009,
    "EPHEMERIS_TYPE": 0,
    "CLASSIFICATION_TYPE": "U",
    "NORAD_CAT_ID": 50814,
    "ELEMENT_SET_NO": 999,
    "REV_AT_EPOCH": 21253,
    "BSTAR": 2.1519000000000002e-05,
    "MEAN_MOTION_DOT": 5.4e-07,
    "MEAN_MOTION_DDOT": 0.0,
    "TLE_LINE1": "1 50814U 22001M   25315.26915358  .00000054  00000+0  21519-4 0  9998",
    "TLE_LINE2": "2 50814  53.2174 340.7299 0001641  93.0171 267.1009 15.08834223212533",
    "COMMENT": "Grouped by shell and plane from TLE"
  },
  {
    "OBJECT_NAME": "STARLINK-3234",
    "OBJECT_ID": "22001N",
    "EPOCH": "2025-11-11T06:43:28.814304",
    "MEAN_MOTION": 15.08842173,
    "ECCENTRICITY": 0.0001409,
    "INCLINATION": 53.2179,
    "RA_OF_ASC_NODE": 340.6812,
    "ARG_OF_PERICENTER": 95.1564,
    "MEAN_ANOMALY": 264.9589,
    "EPHEMERIS_TYPE": 0,
    "CLASSIFICATION_TYPE": "U",
    "NORAD_CAT_ID": 50815,
    "ELEMENT_SET_NO": 999,
    "REV_AT_EPOCH": 21253,
    "BSTAR": 6.7809e-05,
    "MEAN_MOTION_DOT": 7.91e-06,
    "MEAN_MOTION_DDOT": 0.0,
    "TLE_LINE1": "1 50815U 22001N   25315.28019461  .00000791  00000+0  67809-4 0  9991",
    "TLE_LINE2": "2 50815  53.2179 340.6812 0001409  95.1564 264.9589 15.08842173212531",
    "COMMENT": "Grouped by shell and plane from TLE"
  },
  {
    "OBJECT_NAME": "STARLINK-3342",
    "OBJECT_ID": "22001P",
    "EPOCH": "2025-11-11T06:01:05.419488",
    "MEAN_MOTION": 15.08845531,
    "ECCENTRICITY": 0.0001261,
    "INCLINATION": 53.2174,
    "RA_OF_ASC_NODE": 340.8131,
    "ARG_OF_PERICENTER": 86.8516,
    "MEAN_ANOMALY": 273.262,
    "EPHEMERIS_TYPE": 0,
    "CLASSIFICATION_TYPE": "U",
    "NORAD_CAT_ID": 50816,
    "ELEMENT_SET_NO": 999,
    "REV_AT_EPOCH": 21252,
    "BSTAR": 0.00012784000000000002,
    "MEAN_MOTION_DOT": 1.748e-05,
    "MEAN_MOTION_DDOT": 0.0,
    "TLE_LINE1": "1 50816U 22001P   25315.25075717  .00001748  00000+0  12784-3 0  9999",
    "TLE_LINE2": "2 50816  53.2174 340.8131 0001261  86.8516 273.2620 15.08845531212522",
    "COMMENT": "Grouped by shell and plane from TLE"
  },
  {
    "OBJECT_NAME": "STARLINK-3341",
    "OBJECT_ID": "22001Q",
    "EPOCH": "2025-11-11T06:38:11.102496",
    "MEAN_MOTION": 15.08843826,
    "ECCENTRICITY": 0.0001546,
    "INCLINATION": 53.2183,
    "RA_OF_ASC_NODE": 340.6964,
    "ARG_OF_PERICENTER": 85.7285,
    "MEAN_ANOMALY": 274.3884,
    "EPHEMERIS_TYPE": 0,
    "CLASSIFICATION_TYPE": "U",
    "NORAD_CAT_ID": 50817,
    "ELEMENT_SET_NO": 999,
    "REV_AT_EPOCH": 21253,
    "BSTAR": 4.7957e-05,
    "MEAN_MOTION_DOT": 4.75e-06,
    "MEAN_MOTION_DDOT": 0.0,
    "TLE_LINE1": "1 50817U 22001Q   25315.27651739  .00000475  00000+0  47957-4 0  9993",
    "TLE_LINE2": "2 50817  53.2183 340.6964 0001546  85.7285 274.3884 15.08843826212532",
    "COMMENT": "Grouped by shell and plane from TLE"
  },
  {
    "OBJECT_NAME": "STARLINK-3336",
    "OBJECT_ID": "22001R",
    "EPOCH": "2025-11-11T06:11:41.398656",
    "MEAN_MOTION": 15.08841786,
    "ECCENTRICITY": 0.0001277,
    "INCLINATION": 53.2177,
    "RA_OF_ASC_NODE": 340.7804,
    "ARG_OF_PERICENTER": 92.0512,
    "MEAN_ANOMALY": 268.0627,
    "EPHEMERIS_TYPE": 0,
    "CLASSIFICATION_TYPE": "U",
    "NORAD_CAT_ID": 50818,
    "ELEMENT_SET_NO": 999,
    "REV_AT_EPOCH": 21252,
    "BSTAR": 0.00010381,
    "MEAN_MOTION_DOT": 1.365e-05,
    "MEAN_MOTION_DDOT": 0.0,
    "TLE_LINE1": "1 50818U 22001R   25315.25811804  .00001365  00000+0  10381-3 0  9992",
    "TLE_LINE2": "2 50818  53.2177 340.7804 0001277  92.0512 268.0627 15.08841786212522",
    "COMMENT": "Grouped by shell and plane from TLE"
  },
  {
    "OBJECT_NAME": "STARLINK-3327",
    "OBJECT_ID": "22001S",
    "EPOCH": "2025-11-11T06:22:17.540256",
    "MEAN_MOTION": 15.08833203,
    "ECCENTRICITY": 0.0001515,
    "INCLINATION": 53.2178,
    "RA_OF_ASC_NODE": 340.7459,
    "ARG_OF_PERICENTER": 82.4922,
    "MEAN_ANOMALY": 277.6242,
    "EPHEMERIS_TYPE": 0,
    "CLASSIFICATION_TYPE": "U",
    "NORAD_CAT_ID": 50819,
    "ELEMENT_SET_NO": 999,
    "REV_AT_EPOCH": 21253,
    "BSTAR": 0.0,
    "MEAN_MOTION_DOT": -3.183e-05,
    "MEAN_MOTION_DDOT": 0.0,
    "TLE_LINE1": "1 50819U 22001S   25315.26548079 -.00003183  00000+0 -18200-3 0  9995",
    "TLE_LINE2": "2 50819  53.2178 340.7459 0001515  82.4922 277.6242 15.08833203212538",
    "COMMENT": "Grouped by shell and plane from TLE"
  }
]